SHIJIAN-6 04B (SJ-6 04B)
1 37180U 10051B   24108.49344444  .00003224  00000+0  29329-3 0  9995
2 37180  97.8353  97.8657 0012638  74.9824 285.2794 14.95867267737337
FENGYUN 3B              
1 37214U 10059A   24108.52788428  .00000316  00000+0  18834-3 0  9997
2 37214  99.0611 135.7587 0021109 263.6919 215.7566 14.14471784695676
COSMO-SKYMED 4          
1 37216U 10060A   24108.49037852  .00001545  00000+0  20044-3 0  9996
2 37216  97.8870 292.5271 0001447  84.3572 275.7806 14.82178602727508
ELEKTRO-L 1 (GOMS 2)    
1 37344U 11001A   24107.53635163  .00000140  00000+0  00000+0 0  9993
2 37344   7.8727  62.1111 0006027  12.0819 357.1479  1.00183967 48555
RESOURCESAT-2           
1 37387U 11015A   24108.49573334  .00000480  00000+0  23809-3 0  9995
2 37387  98.5809 175.9352 0003221 297.9036  62.1816 14.21692628674366
YOUTHSAT                
1 37388U 11015B   24107.99705690  .00000634  00000+0  28870-3 0  9996
2 37388  98.3004 110.9010 0015446 142.2776 272.1707 14.24836329675462
APRIZESAT 6             
1 37793U 11044F   24108.19977931  .00002355  00000+0  35859-3 0  9997
2 37793  98.3106 350.0838 0046681  90.7404  27.1230 14.74224992680636
JUGNU                   
1 37839U 11058B   24108.26321814  .00000960  00000+0  36528-3 0  9998
2 37839  19.9619  71.6797 0018641 344.9231 152.9112 14.13166420647095
SRMSAT                  
1 37841U 11058D   24108.45636456  .00000772  00000+0  27779-3 0  9992
2 37841  19.9711 164.0902 0011881 146.0390 331.5620 14.11077046646194
SUOMI NPP               
1 37849U 11061A   24108.49691741  .00000308  00000+0  16667-3 0  9995
2 37849  98.7182  47.3996 0001730  85.6410 274.4964 14.19547393646256
M-CUBED & EXP-1 PRIME   
1 37855U 11061F   24107.97396237  .00223342  00000+0  25086-2 0  9995
2 37855 101.6881 254.5214 0060185 173.6898 186.5115 15.59640340683900
YAOGAN-12               
1 37875U 11066B   24108.52551754  .00018650  00000+0  77699-3 0  9993
2 37875  97.2263 170.2271 0005483 164.0472 196.0940 15.23750391692186
ZIYUAN 3-1 (ZY 3-1)     
1 38046U 12001A   24108.51656920  .00022158  00000+0  77225-3 0  9997
2 38046  97.2522 171.8514 0004513  19.0189 341.1219 15.29648420681656
BEIDOU-2 M4             
1 38251U 12018B   24107.11341669 -.00000083  00000+0  00000+0 0  9996
2 38251  56.2857 330.6821 0011952 273.0940  86.8067  1.86232167 81190
ARIRANG-3 (KOMPSAT-3)   
1 38338U 12025B   24108.53322815  .00001745  00000+0  35246-3 0  9998
2 38338  98.2573  54.7676 0011634  71.4578 288.7886 14.62632262635873
HORYU-2                 
1 38340U 12025D   24108.23248787  .00010613  00000+0  13720-2 0  9999
2 38340  98.1597 206.8921 0009510 228.8108 131.2284 14.81075704641617
METOP-B                 
1 38771U 12049A   24108.49999881  .00000400  00000+0  20244-3 0  9992
2 38771  98.6328 167.0682 0001231 130.3506 229.7779 14.21504642600928
SJ-9A                   
1 38860U 12056A   24108.55396610  .00003195  00000+0  40872-3 0  9990
2 38860  97.5916 104.4620 0027238 340.4343  19.5823 14.81761532621548
COSMOS 2484             
1 39059U 13001C   24108.52455943  .00000038  00000+0  20671-3 0  9992
2 39059  82.5064 353.5170 0026166 320.8098  39.1087 12.42895606510533
SARAL                   
1 39086U 13009A   24107.88949008  .00000409  00000+0  16743-3 0  9995
2 39086  98.5518 293.8540 0003057 100.9034 259.2494 14.32382403582300
AAUSAT 3                
1 39087U 13009B   24108.01875170  .00002113  00000+0  71839-3 0  9991
2 39087  98.3730 300.1219 0013093  69.0607 291.1980 14.37537540583712
STRAND-1                
1 39090U 13009E   24108.51943186  .00001028  00000+0  36850-3 0  9991
2 39090  98.3834 298.4765 0010049  76.2652 283.9652 14.35978500583554
BRITE-AUSTRIA           
1 39091U 13009F   24108.48464924  .00000677  00000+0  24857-3 0  9999
2 39091  98.3872 297.7086 0011555  82.1539 278.0958 14.35742633583569
UNIBRITE                
1 39092U 13009G   24108.07804586  .00000690  00000+0  25380-3 0  9994
2 39092  98.3912 297.2225 0010464  79.7074 280.5292 14.35615462583455
AIST-2 (RS-43)          
1 39133U 13015D   24108.49188711  .00009988  00000+0  58537-3 0  9997
2 39133  64.8716 296.9998 0005754 281.0338  79.0138 15.12208239604181
GAOFEN-1                
1 39150U 13018A   24108.47614142  .00002235  00000+0  32731-3 0  9995
2 39150  97.9915 181.4778 0018550 292.3053  67.6190 14.76513669591607
NEE-01 PEGASO           
1 39151U 13018B   24108.25384620  .00008962  00000+0  10514-2 0  9994
2 39151  98.0272 224.8233 0014449 235.2855 124.6999 14.85120723592936
TURKSAT-3USAT           
1 39152U 13018C   24108.23946843  .00010877  00000+0  12337-2 0  9997
2 39152  97.8278 194.8698 0014907 196.7286 163.3440 14.86436903593156
CUBEBUG-1 (CAPITAN BETO)
1 39153U 13018D   24108.32308631  .00010798  00000+0  12179-2 0  9991
2 39153  98.0648 232.8255 0014178 227.4105 132.5915 14.86686541593166
PROBA-V                 
1 39159U 13021A   24108.47489908  .00000260  00000+0  13294-3 0  9997
2 39159  98.3092 118.3713 0003022 297.2867  62.8005 14.23236215568629
ESTCUBE 1               
1 39161U 13021C   24108.13395261  .00005284  00000+0  77468-3 0  9995
2 39161  97.8323 176.4650 0010266  72.3662 287.8668 14.75940777588124
ARIRANG-5 (KOMPSAT-5)   
1 39227U 13042A   24108.51442446  .00005148  00000+0  37192-3 0  9990
2 39227  97.6223 295.2663 0000782 122.8711 237.2591 15.04503911585035
GONETS-M 5              
1 39249U 13048A   24107.90583574  .00000057  00000+0  33631-3 0  9998
2 39249  82.4768 116.6642 0017643 135.4336 224.8166 12.42892583480584
GONETS-M 7              
1 39251U 13048C   24108.52134464  .00000065  00000+0  39493-3 0  9991
2 39251  82.4837 118.7763 0018212 135.0042 225.2516 12.42870677480803
FENGYUN 3C              
1 39260U 13052A   24108.54803198  .00000335  00000+0  19001-3 0  9998
2 39260  98.4297 111.3697 0011905 137.4108 222.7992 14.16178014546741
CASSIOPE                
1 39265U 13055A   24107.86434098  .00047134  00000+0  10026-2 0  9994
2 39265  80.9528 263.9347 0510681  97.3380 268.6135 14.66980752549393
APRIZESAT 7             
1 39416U 13066A   24107.88714227  .00004736  00000+0  52772-3 0  9997
2 39416  97.6653  69.1857 0037659 312.6324  47.1719 14.87020857563429
ZACUBE-1 (TSHEPISOSAT)  
1 39417U 13066B   24108.43226853  .00015226  00000+0  16090-2 0  9991
2 39417  97.7290  65.8209 0051691   3.8732 356.2875 14.88321162562549
APRIZESAT 8             
1 39425U 13066K   24107.84727188  .00004071  00000+0  48679-3 0  9996
2 39425  97.7235  62.2799 0049656   8.9917 351.2175 14.83825257562144
CINEMA-3 (KHUSAT-2)     
1 39426U 13066L   24107.77097983  .00004166  00000+0  60774-3 0  9997
2 39426  97.8422  31.8399 0096656 248.5788 110.5089 14.73154549557694
TRITON-1                
1 39427U 13066M   24108.48916988  .00007292  00000+0  10403-2 0  9998
2 39427  97.8423  28.4562 0102032 277.8008  81.1626 14.73481183557468
DELFI-N3XT              
1 39428U 13066N   24107.78128311  .00016577  00000+0  21644-2 0  9991
2 39428  97.8384  27.7851 0101160 288.0740  70.9471 14.76997303557021
GOMX-1                  
1 39430U 13066Q   24108.56186336  .00005727  00000+0  95688-3 0  9997
2 39430  97.7415 346.6058 0142758  85.5649 276.1849 14.63665803554171
BRITE-PL1 (LEM)         
1 39431U 13066R   24107.99780636  .00001287  00000+0  27707-3 0  9991
2 39431  97.6982 271.6606 0196504 311.5818  46.8676 14.48769921549458
ICUBE-1                 
1 39432U 13066S   24107.93537838  .00016386  00000+0  12945-2 0  9993
2 39432  97.5097  91.7304 0028329 178.6366 181.4940 15.00428496564758
HUMSAT-D                
1 39433U 13066T   24107.94620379  .00027560  00000+0  18428-2 0  9996
2 39433  97.4885 101.0254 0021868 130.5808 229.7328 15.06724718566706
VELOX-PII               
1 39438U 13066Y   24107.84189519  .00009132  00000+0  10717-2 0  9994
2 39438  97.7827  57.1011 0065132  72.8981 287.9353 14.83624523560079
FIRST-MOVE              
1 39439U 13066Z   24107.86460440  .00034071  00000+0  28399-2 0  9997
2 39439  97.7194  71.9835 0048057 345.3585  14.6242 14.97612966561694
CUBEBUG-2 (LO-74)       
1 39440U 13066AA  24107.84456710  .00009767  00000+0  11679-2 0  9999
2 39440  97.8087  52.8918 0072688 113.9025 246.9825 14.82462222559240
NEE-02 KRYSAOR          
1 39441U 13066AB  24107.77612253  .00005957  00000+0  76447-3 0  9990
2 39441  97.8180  48.9215 0076285 134.6264 226.1204 14.79528415558853
FUNCUBE-1 (AO-73)       
1 39444U 13066AE  24108.43631066  .00019254  00000+0  19089-2 0  9993
2 39444  97.7144  68.8042 0048516 345.6439  14.3398 14.90937574561643
HINCUBE                 
1 39445U 13066AF  24107.86596541  .00016585  00000+0  16606-2 0  9994
2 39445  97.7158  67.9239 0049156 350.5317   9.4970 14.90555568560894
UWE-3                   
1 39446U 13066AG  24107.82973159  .00011827  00000+0  13368-2 0  9991
2 39446  97.7759  58.9368 0063306  62.0178 298.7424 14.85169642559598
COSMOS 2488             
1 39483U 13076A   24107.90949597  .00000072  00000+0  44971-3 0  9996
2 39483  82.4803 301.8080 0019531  21.3646 338.8245 12.42883057467599
COSMOS 2489             
1 39484U 13076B   24108.20436310  .00000064  00000+0  39356-3 0  9997
2 39484  82.4841 302.7627 0021603  21.8534 338.3462 12.42875538467886
COSMOS 2490             
1 39485U 13076C   24108.49898698  .00000064  00000+0  39062-3 0  9994
2 39485  82.4786 300.9938 0021566  35.8850 324.3673 12.42889484467866
AIST-1 (RS-41)          
1 39492U 13078C   24108.51707616  .00004534  00000+0  45292-3 0  9994
2 39492  82.4164 314.2944 0019563  44.7686 315.5107 14.91157809559523
KAZEOSAT 1              
1 39731U 14024A   24108.49967048  .00000729  00000+0  23510-3 0  9997
2 39731  98.3962 185.9381 0001048 102.8875 257.2432 14.42056865524659
COSMOS 2496             
1 39761U 14028A   24108.53802991  .00000056  00000+0  33450-3 0  9991
2 39761  82.4442 243.9401 0019174   5.3809 354.7473 12.42891400449351
